{
  "links" : {
    "next" : "https://api.nasa.gov/neo/rest/v1/feed?start_date=2014-07-23&end_date=2014-07-23&detailed=true&api_key=t0TVs3DtDT2H8Oy2Zy8m2eVrNsAVKAexjcZXUckd",
    "prev" : "https://api.nasa.gov/neo/rest/v1/feed?start_date=2014-07-21&end_date=2014-07-21&detailed=true&api_key=t0TVs3DtDT2H8Oy2Zy8m2eVrNsAVKAexjcZXUckd",
    "self" : "https://api.nasa.gov/neo/rest/v1/feed?start_date=2014-07-22&end_date=2014-07-22&detailed=true&api_key=t0TVs3DtDT2H8Oy2Zy8m2eVrNsAVKAexjcZXUckd"
  },
  "element_count" : 6,
  "near_earth_objects" : {
    "2014-07-22" : [ {
      "links" : {
        "self" : "https://api.nasa.gov/neo/rest/v1/neo/3654336?api_key=t0TVs3DtDT2H8Oy2Zy8m2eVrNsAVKAexjcZXUckd"
      },
      "neo_reference_id" : "3654336",
      "name" : "(2013 XS3)",
      "nasa_jpl_url" : "http://ssd.jpl.nasa.gov/sbdb.cgi?sstr=3654336",
      "absolute_magnitude_h" : 20.1,
      "estimated_diameter" : {
        "kilometers" : {
          "estimated_diameter_min" : 0.2538370294,
          "estimated_diameter_max" : 0.5675968529
        },
        "meters" : {
          "estimated_diameter_min" : 253.8370293645,
          "estimated_diameter_max" : 567.5968528656
        },
        "miles" : {
          "estimated_diameter_min" : 0.1577269688,
          "estimated_diameter_max" : 0.3526882241
        },
        "feet" : {
          "estimated_diameter_min" : 832.7986794202,
          "estimated_diameter_max" : 1862.1944587557
        }
      },
      "is_potentially_hazardous_asteroid" : false,
      "close_approach_data" : [ {
        "close_approach_date" : "2014-07-22",
        "epoch_date_close_approach" : 1406012400000,
        "relative_velocity" : {
          "kilometers_per_second" : "21.282464738",
          "kilometers_per_hour" : "76616.8730567021",
          "miles_per_hour" : "47606.7453723714"
        },
        "miss_distance" : {
          "astronomical" : "0.3899653034",
          "lunar" : "151.6965026855",
          "kilometers" : "58337980",
          "miles" : "36249540"
        },
        "orbiting_body" : "Earth"
      } ],
      "orbital_data" : {
        "orbit_id" : "16",
        "orbit_determination_date" : "2017-04-06 08:43:26",
        "orbit_uncertainty" : "3",
        "minimum_orbit_intersection" : ".279136",
        "jupiter_tisserand_invariant" : "5.117",
        "epoch_osculation" : "2458000.5",
        "eccentricity" : ".4012569993780504",
        "semi_major_axis" : "1.19915495273952",
        "inclination" : "27.75732036731416",
        "ascending_node_longitude" : "251.4601707107075",
        "orbital_period" : "479.6355722431564",
        "perihelion_distance" : ".7179856346139326",
        "perihelion_argument" : "341.0233991159489",
        "aphelion_distance" : "1.680324270865108",
        "perihelion_time" : "2457787.811514802429",
        "mean_anomaly" : "159.6375646473293",
        "mean_motion" : ".7505698510149161",
        "equinox" : "J2000"
      }
    }, {
      "links" : {
        "self" : "https://api.nasa.gov/neo/rest/v1/neo/3655365?api_key=t0TVs3DtDT2H8Oy2Zy8m2eVrNsAVKAexjcZXUckd"
      },
      "neo_reference_id" : "3655365",
      "name" : "(2013 YG)",
      "nasa_jpl_url" : "http://ssd.jpl.nasa.gov/sbdb.cgi?sstr=3655365",
      "absolute_magnitude_h" : 25.4,
      "estimated_diameter" : {
        "kilometers" : {
          "estimated_diameter_min" : 0.022108281,
          "estimated_diameter_max" : 0.0494356193
        },
        "meters" : {
          "estimated_diameter_min" : 22.1082810359,
          "estimated_diameter_max" : 49.435619262
        },
        "miles" : {
          "estimated_diameter_min" : 0.0137374447,
          "estimated_diameter_max" : 0.0307178602
        },
        "feet" : {
          "estimated_diameter_min" : 72.5337327539,
          "estimated_diameter_max" : 162.1903570994
        }
      },
      "is_potentially_hazardous_asteroid" : false,
      "close_approach_data" : [ {
        "close_approach_date" : "2014-07-22",
        "epoch_date_close_approach" : 1406012400000,
        "relative_velocity" : {
          "kilometers_per_second" : "4.6068067276",
          "kilometers_per_hour" : "16584.5042193526",
          "miles_per_hour" : "10304.9659689638"
        },
        "miss_distance" : {
          "astronomical" : "0.1276417836",
          "lunar" : "49.6526527405",
          "kilometers" : "19094938",
          "miles" : "11865045"
        },
        "orbiting_body" : "Earth"
      } ],
      "orbital_data" : {
        "orbit_id" : "10",
        "orbit_determination_date" : "2017-04-06 08:43:14",
        "orbit_uncertainty" : "5",
        "minimum_orbit_intersection" : ".0334638",
        "jupiter_tisserand_invariant" : "6.187",
        "epoch_osculation" : "2458000.5",
        "eccentricity" : ".07816389233939973",
        "semi_major_axis" : ".9762915595187789",
        "inclination" : "7.130930989381911",
        "ascending_node_longitude" : "272.4929131717997",
        "orbital_period" : "352.3446883711152",
        "perihelion_distance" : ".8999808111686884",
        "perihelion_argument" : "50.44054152790043",
        "aphelion_distance" : "1.052602307868869",
        "perihelion_time" : "2457940.495777248750",
        "mean_anomaly" : "61.3079206339493",
        "mean_motion" : "1.021726768932647",
        "equinox" : "J2000"
      }
    }, {
      "links" : {
        "self" : "https://api.nasa.gov/neo/rest/v1/neo/3766966?api_key=t0TVs3DtDT2H8Oy2Zy8m2eVrNsAVKAexjcZXUckd"
      },
      "neo_reference_id" : "3766966",
      "name" : "(2017 BS5)",
      "nasa_jpl_url" : "http://ssd.jpl.nasa.gov/sbdb.cgi?sstr=3766966",
      "absolute_magnitude_h" : 24.1,
      "estimated_diameter" : {
        "kilometers" : {
          "estimated_diameter_min" : 0.040230458,
          "estimated_diameter_max" : 0.0899580388
        },
        "meters" : {
          "estimated_diameter_min" : 40.2304579834,
          "estimated_diameter_max" : 89.9580388169
        },
        "miles" : {
          "estimated_diameter_min" : 0.0249980399,
          "estimated_diameter_max" : 0.0558973165
        },
        "feet" : {
          "estimated_diameter_min" : 131.9896957704,
          "estimated_diameter_max" : 295.1379320721
        }
      },
      "is_potentially_hazardous_asteroid" : false,
      "close_approach_data" : [ {
        "close_approach_date" : "2014-07-22",
        "epoch_date_close_approach" : 1406012400000,
        "relative_velocity" : {
          "kilometers_per_second" : "11.4976460297",
          "kilometers_per_hour" : "41391.5257070438",
          "miles_per_hour" : "25719.0844039129"
        },
        "miss_distance" : {
          "astronomical" : "0.3548887329",
          "lunar" : "138.0517120361",
          "kilometers" : "53090600",
          "miles" : "32988970"
        },
        "orbiting_body" : "Earth"
      } ],
      "orbital_data" : {
        "orbit_id" : "21",
        "orbit_determination_date" : "2017-07-29 06:20:12",
        "orbit_uncertainty" : "1",
        "minimum_orbit_intersection" : ".00702408",
        "jupiter_tisserand_invariant" : "5.991",
        "epoch_osculation" : "2458000.5",
        "eccentricity" : ".007522355099367976",
        "semi_major_axis" : "1.015422525355288",
        "inclination" : "11.23221987664612",
        "ascending_node_longitude" : "120.8431101168368",
        "orbital_period" : "373.7391699479398",
        "perihelion_distance" : "1.007784156543668",
        "perihelion_argument" : "15.57689542286544",
        "aphelion_distance" : "1.023060894166907",
        "perihelion_time" : "2458161.803038158102",
        "mean_anomaly" : "204.6266851157035",
        "mean_motion" : ".9632386138443728",
        "equinox" : "J2000"
      }
    } ]
  }
}